NORAD_CAT_ID,OBJECT_NAME,OBJECT_TYPE,EPOCH,MEAN_MOTION,ECCENTRICITY,INCLINATION,RA_OF_ASC_NODE,ARG_OF_PERICENTER,MEAN_ANOMALY,BSTAR,MEAN_MOTION_DOT,MEAN_MOTION_DDOT,TLE_LINE0,TLE_LINE1,TLE_LINE2,SEMIMAJOR_AXIS,PERIOD,APOGEE,PERIGEE,DECAYED
53138.0,STARLINK-4141,PAYLOAD,2024-07-17 14:25:11,15.0883066,0.0001124,53.2177,343.2078,92.684,267.4281,-4.4589e-05,-9.97e-06,0.0,0 STARLINK-4141,1 53138U 22083G   24199.60082830 -.00000997  00000-0 -44589-4 0  9998,2 53138  53.2177 343.2078 0001124  92.6840 267.4281 15.08830660111461,6917.909,95.438,540.552,538.996,0.0
53138.0,STARLINK-4141,PAYLOAD,2024-07-17 16:00:34,15.08829538,0.0001062,53.2172,342.9095,98.9475,261.1637,-0.0001008,-1.891e-05,0.0,0 STARLINK-4141,1 53138U 22083G   24199.66706655 -.00001891  00000-0 -10080-3 0  9994,2 53138  53.2172 342.9095 0001062  98.9475 261.1637 15.08829538111328,6917.912,95.438,540.512,539.043,0.0
53138.0,STARLINK-4141,PAYLOAD,2024-07-18 03:08:16,15.08847916,0.0001424,53.219,340.8273,104.7116,255.4034,0.0002732,4.064e-05,0.0,0 STARLINK-4141,1 53138U 22083G   24200.13074145  .00004064  00000-0  27320-3 0  9999,2 53138  53.2190 340.8273 0001424 104.7116 255.4034 15.08847916111397,6917.856,95.437,540.706,538.736,0.0
53138.0,STARLINK-4141,PAYLOAD,2024-07-18 12:40:35,15.08839203,0.0001569,53.2193,339.045,115.892,244.2234,0.00021877,3.195e-05,0.0,0 STARLINK-4141,1 53138U 22083G   24200.52818778  .00003195  00000-0  21877-3 0  9995,2 53138  53.2193 339.0450 0001569 115.8920 244.2234 15.08839203111458,6917.883,95.438,540.833,538.662,0.0
53138.0,STARLINK-4141,PAYLOAD,2024-07-18 14:15:58,15.08834809,0.0001487,53.2155,338.7497,90.0815,270.0347,9.2864e-05,1.19e-05,0.0,0 STARLINK-4141,1 53138U 22083G   24200.59442968  .00001190  00000-0  92864-4 0  9994,2 53138  53.2155 338.7497 0001487  90.0815 270.0347 15.08834809111616,6917.896,95.438,540.79,538.733,0.0
53138.0,STARLINK-4141,PAYLOAD,2024-07-18 15:51:21,15.08837156,0.0001475,53.2156,338.4518,93.6917,266.4243,0.00013992,1.939e-05,0.0,0 STARLINK-4141,1 53138U 22083G   24200.66066924  .00001939  00000-0  13992-3 0  9991,2 53138  53.2156 338.4518 0001475  93.6917 266.4243 15.08837156111620,6917.889,95.438,540.774,538.734,0.0
53138.0,STARLINK-4141,PAYLOAD,2024-07-19 14:06:45,15.08844674,0.0001455,53.2184,334.2884,93.0002,267.1156,0.00028575,4.263e-05,0.0,0 STARLINK-4141,1 53138U 22083G   24201.58803036  .00004263  00000-0  28575-3 0  9992,2 53138  53.2184 334.2884 0001455  93.0002 267.1156 15.08844674111767,6917.866,95.437,540.738,538.725,0.0
53138.0,STARLINK-4141,PAYLOAD,2024-07-19 15:42:08,15.08847177,0.0001216,53.2172,333.9888,91.965,268.1481,0.00035397,5.351e-05,0.0,0 STARLINK-4141,1 53138U 22083G   24201.65426814  .00005351  00000-0  35397-3 0  9994,2 53138  53.2172 333.9888 0001216  91.9650 268.1481 15.08847177111623,6917.858,95.437,540.565,538.882,0.0
53138.0,STARLINK-4141,PAYLOAD,2024-07-20 12:22:09,15.08849385,0.0001547,53.2157,330.1165,109.6502,250.4657,0.00021852,3.192e-05,0.0,0 STARLINK-4141,1 53138U 22083G   24202.51538530  .00003192  00000-0  21852-3 0  9991,2 53138  53.2157 330.1165 0001547 109.6502 250.4657 15.08849385111759,6917.852,95.437,540.787,538.647,0.0
53138.0,STARLINK-4141,PAYLOAD,2024-07-20 13:57:32,15.08846893,0.0001144,53.2159,329.8209,57.9705,302.1398,0.00021813,3.186e-05,0.0,0 STARLINK-4141,1 53138U 22083G   24202.58162755  .00003186  00000-0  21813-3 0  9990,2 53138  53.2159 329.8209 0001144  57.9705 302.1398 15.08846893111914,6917.859,95.437,540.516,538.933,0.0
53138.0,STARLINK-4141,PAYLOAD,2024-07-21 12:12:56,15.08823777,0.0001424,53.2162,325.6571,45.8503,314.2606,-0.000329,-5.518e-05,0.0,0 STARLINK-4141,1 53138U 22083G   24203.50899217 -.00005518  00000-0 -32900-3 0  9995,2 53138  53.2162 325.6571 0001424  45.8503 314.2606 15.08823777111908,6917.93,95.439,540.78,538.81,0.0
53138.0,STARLINK-4141,PAYLOAD,2024-07-21 13:48:20,15.08830962,0.0001262,53.217,325.3656,74.8019,285.3113,-0.00012652,-2.3e-05,0.0,0 STARLINK-4141,1 53138U 22083G   24203.57523156 -.00002300  00000-0 -12652-3 0  9996,2 53138  53.2170 325.3656 0001262  74.8019 285.3113 15.08830962112065,6917.908,95.438,540.646,538.9,0.0
53138.0,STARLINK-4141,PAYLOAD,2024-07-22 18:25:16,15.08842662,0.0001542,53.218,320.015,93.3779,266.7389,0.00044715,6.836e-05,0.0,0 STARLINK-4141,1 53138U 22083G   24204.76755462  .00006836  00000-0  44715-3 0  9996,2 53138  53.2180 320.0150 0001542  93.3779 266.7389 15.08842662112098,6917.872,95.437,540.804,538.671,0.0
53138.0,STARLINK-4141,PAYLOAD,2024-07-24 16:31:27,15.08843456,0.000144,53.2166,311.3909,79.7537,280.3617,0.00023453,3.447e-05,0.0,0 STARLINK-4141,1 53138U 22083G   24206.68851726  .00003447  00000-0  23453-3 0  9990,2 53138  53.2166 311.3909 0001440  79.7537 280.3617 15.08843456112384,6917.87,95.437,540.731,538.739,0.0
53138.0,STARLINK-4141,PAYLOAD,2024-07-25 06:49:56,15.08842258,0.000144,53.2164,308.7149,82.4408,277.6747,0.00020581,2.989e-05,0.0,0 STARLINK-4141,1 53138U 22083G   24207.28467780  .00002989  00000-0  20581-3 0  9999,2 53138  53.2164 308.7149 0001440  82.4408 277.6747 15.08842258112625,6917.873,95.437,540.735,538.742,0.0
53138.0,STARLINK-4141,PAYLOAD,2024-07-26 00:19:10,15.08850965,0.0001438,53.2165,305.4442,86.3586,273.757,0.00029516,4.414e-05,0.0,0 STARLINK-4141,1 53138U 22083G   24208.01331298  .00004414  00000-0  29516-3 0  9997,2 53138  53.2165 305.4442 0001438  86.3586 273.7570 15.08850965112583,6917.847,95.437,540.707,538.717,0.0
53138.0,STARLINK-4141,PAYLOAD,2024-07-26 11:26:52,15.08846943,0.0001538,53.2173,303.364,102.172,257.9444,0.00017679,2.527e-05,0.0,0 STARLINK-4141,1 53138U 22083G   24208.47699270  .00002527  00000-0  17679-3 0  9994,2 53138  53.2173 303.3640 0001538 102.1720 257.9444 15.08846943112807,6917.859,95.437,540.788,538.66,0.0
53138.0,STARLINK-4141,PAYLOAD,2024-07-26 13:02:15,15.08850621,0.0001334,53.2165,303.065,97.8294,262.2849,0.00023668,3.482e-05,0.0,0 STARLINK-4141,1 53138U 22083G   24208.54323042  .00003482  00000-0  23668-3 0  9999,2 53138  53.2165 303.0650 0001334  97.8294 262.2849 15.08850621112813,6917.848,95.437,540.636,538.79,0.0
53138.0,STARLINK-4141,PAYLOAD,2024-07-27 09:42:16,15.08837725,0.0002164,53.2175,299.1994,127.4059,232.713,-1.4914e-05,-5.26e-06,0.0,0 STARLINK-4141,1 53138U 22083G   24209.40435460 -.00000526  00000-0 -14914-4 0  9996,2 53138  53.2175 299.1994 0002164 127.4059 232.7130 15.08837725112793,6917.887,95.438,541.249,538.255,0.0
53138.0,STARLINK-4141,PAYLOAD,2024-07-27 16:03:49,15.08829766,0.000148,53.2173,298.011,108.8353,251.28,-0.00010711,-1.992e-05,0.0,0 STARLINK-4141,1 53138U 22083G   24209.66932014 -.00001992  00000-0 -10711-3 0  9999,2 53138  53.2173 298.0110 0001480 108.8353 251.2800 15.08829766112986,6917.912,95.438,540.801,538.753,0.0
53138.0,STARLINK-4141,PAYLOAD,2024-07-28 12:43:49,15.08847728,0.0001351,53.2161,294.1457,100.569,259.5454,0.00030801,4.618e-05,0.0,0 STARLINK-4141,1 53138U 22083G   24210.53043502  .00004618  00000-0  30801-3 0  9990,2 53138  53.2161 294.1457 0001351 100.5690 259.5454 15.08847728112966,6917.857,95.437,540.656,538.787,0.0
53138.0,STARLINK-4141,PAYLOAD,2024-07-28 22:16:08,15.08863241,0.0001369,53.2162,292.3614,98.9389,261.1758,0.00088367,0.00013812,0.0,0 STARLINK-4141,1 53138U 22083G   24210.92787222  .00013812  00000-0  88367-3 0  9993,2 53138  53.2162 292.3614 0001369  98.9389 261.1758 15.08863241113174,6917.809,95.436,540.621,538.727,0.0
53138.0,STARLINK-4141,PAYLOAD,2024-07-29 12:34:36,15.08850868,0.0001314,53.216,289.685,90.5473,269.567,0.00032494,4.889e-05,0.0,0 STARLINK-4141,1 53138U 22083G   24211.52403316  .00004889  00000-0  32494-3 0  9993,2 53138  53.2160 289.6850 0001314  90.5473 269.5670 15.08850868113115,6917.847,95.437,540.621,538.803,0.0
53138.0,STARLINK-4141,PAYLOAD,2024-07-29 14:09:59,15.08854023,0.0001338,53.216,289.3876,89.299,270.8155,0.00052411,8.066e-05,0.0,0 STARLINK-4141,1 53138U 22083G   24211.59027293  .00008066  00000-0  52411-3 0  9998,2 53138  53.2160 289.3876 0001338  89.2990 270.8155 15.08854023113272,6917.838,95.437,540.628,538.777,0.0
53138.0,STARLINK-4141,PAYLOAD,2024-07-29 22:06:55,15.08850301,0.0001311,53.2156,287.9008,84.7134,275.4008,0.0010577,0.0001659,0.0,0 STARLINK-4141,1 53138U 22083G   24211.92147359  .00016590  00000-0  10577-2 0  9998,2 53138  53.2156 287.9008 0001311  84.7134 275.4008 15.08850301113328,6917.849,95.437,540.621,538.807,0.0
53138.0,STARLINK-4141,PAYLOAD,2024-07-30 09:14:37,15.0883828,0.0001583,53.2159,285.8191,91.2043,268.913,0.00059895,9.257e-05,0.0,0 STARLINK-4141,1 53138U 22083G   24212.38515756  .00009257  00000-0  59895-3 0  9998,2 53138  53.2159 285.8191 0001583  91.2043 268.9130 15.08838280113240,6917.886,95.438,540.846,538.656,0.0
53138.0,STARLINK-4141,PAYLOAD,2024-07-30 21:57:42,15.08847942,0.0001819,53.217,283.4417,89.7708,270.3492,0.00085202,0.00013301,0.0,0 STARLINK-4141,1 53138U 22083G   24212.91507877  .00013301  00000-0  85202-3 0  9998,2 53138  53.2170 283.4417 0001819  89.7708 270.3492 15.08847942113478,6917.856,95.437,540.979,538.463,0.0
53138.0,STARLINK-4141,PAYLOAD,2024-07-31 10:40:47,15.08838913,0.0001225,53.2167,281.0627,97.1402,262.9729,0.00025936,3.842e-05,0.0,0 STARLINK-4141,1 53138U 22083G   24213.44499863  .00003842  00000-0  25936-3 0  9999,2 53138  53.2167 281.0627 0001225  97.1402 262.9729 15.08838913113407,6917.884,95.438,540.596,538.901,0.0
53138.0,STARLINK-4141,PAYLOAD,2024-07-31 13:51:34,15.08844735,0.0001331,53.2153,280.4662,95.3823,264.7321,0.00044682,6.831e-05,0.0,0 STARLINK-4141,1 53138U 22083G   24213.57747711  .00006831  00000-0  44682-3 0  9991,2 53138  53.2153 280.4662 0001331  95.3823 264.7321 15.08844735113574,6917.866,95.437,540.652,538.81,0.0
53138.0,STARLINK-4141,PAYLOAD,2024-08-01 10:31:34,15.08853519,0.0001639,53.217,276.5981,94.3587,265.7593,0.00054865,8.458e-05,0.0,0 STARLINK-4141,1 53138U 22083G   24214.43859696  .00008458  00000-0  54865-3 0  9994,2 53138  53.2170 276.5981 0001639  94.3587 265.7593 15.08853519113707,6917.839,95.437,540.838,538.57,0.0
